{
  "norad_id": 67879,
  "name": "STARLINK-36818",
  "history": [
    {
      "epoch": "2026-03-28T18:09:44.949600Z",
      "apogee_km": 344.8153546849808,
      "perigee_km": 342.8091217153478,
      "latitude_deg": -6.869044888648703e-06,
      "longitude_deg": -77.53333179248774,
      "height_km": 347.2462462680416,
      "semi_major_axis_km": 6721.9492382001645,
      "eccentricity": 0.00014923,
      "inclination_deg": 97.2858,
      "raan_deg": 21.0766,
      "arg_perigee_deg": 105.4851,
      "mean_anomaly_deg": 254.6579,
      "mean_motion_rev_day": 15.75287835
    },
    {
      "epoch": "2026-03-29T04:50:06.483552Z",
      "apogee_km": 344.6124934856107,
      "perigee_km": 342.9535236274978,
      "latitude_deg": 7.818367592937347e-05,
      "longitude_deg": 122.4051225111312,
      "height_km": 347.01252426334366,
      "semi_major_axis_km": 6721.9200085565535,
      "eccentricity": 0.0001234,
      "inclination_deg": 97.2852,
      "raan_deg": 21.5431,
      "arg_perigee_deg": 94.3566,
      "mean_anomaly_deg": 265.7841,
      "mean_motion_rev_day": 15.7529811
    }
  ]
}